NORAD_CAT_ID,OBJECT_NAME,OBJECT_TYPE,EPOCH,MEAN_MOTION,ECCENTRICITY,INCLINATION,RA_OF_ASC_NODE,ARG_OF_PERICENTER,MEAN_ANOMALY,BSTAR,MEAN_MOTION_DOT,MEAN_MOTION_DDOT,TLE_LINE0,TLE_LINE1,TLE_LINE2,SEMIMAJOR_AXIS,PERIOD,APOGEE,PERIGEE,DECAYED
49754.0,STARLINK-3193,PAYLOAD,2023-01-13 11:36:09,15.08835496,0.0001953,53.2152,267.0849,55.0009,305.1166,0.00026401,3.916e-05,0.0,0 STARLINK-3193,1 49754U 21115AG  23013.48344237  .00003916  00000-0  26401-3 0  9998,2 49754  53.2152 267.0849 0001953  55.0009 305.1166 15.08835496 62999,6917.894,95.438,541.11,538.408,0.0
49754.0,STARLINK-3193,PAYLOAD,2023-01-13 22:43:51,15.08841841,0.0001862,53.2157,265.0035,55.482,304.6348,0.00030648,4.593e-05,0.0,0 STARLINK-3193,1 49754U 21115AG  23013.94712089  .00004593  00000-0  30648-3 0  9993,2 49754  53.2157 265.0035 0001862  55.4820 304.6348 15.08841841 61955,6917.875,95.437,541.028,538.452,0.0
49754.0,STARLINK-3193,PAYLOAD,2023-01-14 16:13:05,15.08839622,0.0002124,53.2158,261.7319,67.8144,292.3073,0.00014457,2.013e-05,0.0,0 STARLINK-3193,1 49754U 21115AG  23014.67576251  .00002013  00000-0  14457-3 0  9998,2 49754  53.2158 261.7319 0002124  67.8144 292.3073 15.08839622 63170,6917.882,95.438,541.216,538.2769999999999,0.0
49754.0,STARLINK-3193,PAYLOAD,2023-01-15 09:42:20,15.08842809,0.0001758,53.2155,258.461,69.0142,291.1038,0.000118,1.591e-05,0.0,0 STARLINK-3193,1 49754U 21115AG  23015.40440040  .00001591  00000-0  11800-3 0  9995,2 49754  53.2155 258.4610 0001758  69.0142 291.1038 15.08842809 62176,6917.871999999999,95.437,540.953,538.521,0.0
49754.0,STARLINK-3193,PAYLOAD,2023-01-15 16:03:52,15.08857069,0.0001656,53.215,257.2721,64.1633,295.953,0.00037802,5.736e-05,0.0,0 STARLINK-3193,1 49754U 21115AG  23015.66935319  .00005736  00000-0  37802-3 0  9996,2 49754  53.2150 257.2721 0001656  64.1633 295.9530 15.08857069 63320,6917.828,95.436,540.839,538.548,0.0
49754.0,STARLINK-3193,PAYLOAD,2023-01-15 22:25:23,15.08879376,0.0001571,53.2154,256.0826,69.8005,290.3156,0.00074956,0.00011674,0.0,0 STARLINK-3193,1 49754U 21115AG  23015.93430135  .00011674  00000-0  74956-3 0  9991,2 49754  53.2154 256.0826 0001571  69.8005 290.3156 15.08879376 62257,6917.76,95.435,540.712,538.538,0.0
49754.0,STARLINK-3193,PAYLOAD,2023-01-16 11:08:29,15.08851897,0.0001245,53.2152,253.7027,84.74700000000001,275.3664,0.00016721,2.375e-05,0.0,0 STARLINK-3193,1 49754U 21115AG  23016.46422554  .00002375  00000-0  16721-3 0  9990,2 49754  53.2152 253.7027 0001245  84.7470 275.3664 15.08851897 63449,6917.844,95.437,540.57,538.8480000000001,0.0
49754.0,STARLINK-3193,PAYLOAD,2023-01-16 22:16:12,15.0882122,0.0001604,53.2153,251.6222,91.286,268.8316,-0.00039432,-6.555e-05,0.0,0 STARLINK-3193,1 49754U 21115AG  23016.92792075 -.00006555  00000-0 -39432-3 0  9999,2 49754  53.2153 251.6222 0001604  91.2860 268.8316 15.08821220 63515,6917.938,95.439,540.9119999999999,538.693,0.0
49754.0,STARLINK-3193,PAYLOAD,2023-01-17 01:26:58,15.08824173,0.0001438,53.2153,251.0267,93.0836,267.032,-0.00040154,-6.670000000000001e-05,0.0,0 STARLINK-3193,1 49754U 21115AG  23017.06039724 -.00006670  00000-0 -40154-3 0  9991,2 49754  53.2153 251.0267 0001438  93.0836 267.0320 15.08824173 62421,6917.929,95.439,540.789,538.799,0.0
49754.0,STARLINK-3193,PAYLOAD,2023-01-17 15:45:27,15.0882177,0.0001476,53.2155,248.3506,106.386,253.7294,0.00030346,4.543e-05,0.0,0 STARLINK-3193,1 49754U 21115AG  23017.65656675  .00004543  00000-0  30346-3 0  9993,2 49754  53.2155 248.3506 0001476 106.3860 253.7294 15.08821770 62517,6917.936,95.439,540.822,538.78,0.0
49754.0,STARLINK-3193,PAYLOAD,2023-01-17 23:42:23,15.08833676,0.000147,53.2155,246.8639,107.031,253.0843,0.00096102,0.00015037,0.0,0 STARLINK-3193,1 49754U 21115AG  23017.98777086  .00015037  00000-0  96102-3 0  9991,2 49754  53.2155 246.8639 0001470 107.0310 253.0843 15.08833676 63678,6917.9,95.438,540.7819999999999,538.748,0.0
49754.0,STARLINK-3193,PAYLOAD,2023-01-18 14:00:51,15.08849045,0.0001483,53.2152,244.1878,108.1752,251.9402,0.00088627,0.00013849,0.0,0 STARLINK-3193,1 49754U 21115AG  23018.58393036  .00013849  00000-0  88627-3 0  9999,2 49754  53.2152 244.1878 0001483 108.1752 251.9402 15.08849045 62659,6917.853,95.437,540.744,538.692,0.0
49754.0,STARLINK-3193,PAYLOAD,2023-01-18 21:57:47,15.08834532,0.0001379,53.2151,242.7011,105.1974,254.917,0.00014216,1.975e-05,0.0,0 STARLINK-3193,1 49754U 21115AG  23018.91513350  .00001975  00000-0  14216-3 0  9999,2 49754  53.2151 242.7011 0001379 105.1974 254.9170 15.08834532 63817,6917.897,95.438,540.716,538.808,0.0
49754.0,STARLINK-3193,PAYLOAD,2023-01-19 13:51:39,15.08841949,0.0001358,53.2146,239.7274,104.4967,255.6176,0.00055778,8.601e-05,0.0,0 STARLINK-3193,1 49754U 21115AG  23019.57753550  .00008601  00000-0  55778-3 0  9991,2 49754  53.2146 239.7274 0001358 104.4967 255.6176 15.08841949 62801,6917.874,95.437,540.679,538.8,0.0
49754.0,STARLINK-3193,PAYLOAD,2023-01-20 00:59:20,15.08849517,0.0001304,53.2143,237.6456,103.4687,256.645,0.00077557,0.0001208,0.0,0 STARLINK-3193,1 49754U 21115AG  23020.04121469  .00012080  00000-0  77557-3 0  9998,2 49754  53.2143 237.6456 0001304 103.4687 256.6450 15.08849517 63981,6917.851,95.437,540.618,538.814,0.0
49754.0,STARLINK-3193,PAYLOAD,2023-01-20 07:20:53,15.088481699999996,0.0001291,53.2144,236.4561,96.4418,263.6721,0.00051643,7.942e-05,0.0,0 STARLINK-3193,1 49754U 21115AG  23020.30617434  .00007942  00000-0  51643-3 0  9998,2 49754  53.2144 236.4561 0001291  96.4418 263.6721 15.08848170 62919,6917.855,95.437,540.614,538.827,0.0
49754.0,STARLINK-3193,PAYLOAD,2023-01-20 21:39:21,15.08849489,0.0001304,53.2142,233.7797,94.988,265.1261,0.00035571,5.379e-05,0.0,0 STARLINK-3193,1 49754U 21115AG  23020.90233272  .00005379  00000-0  35571-3 0  9992,2 49754  53.2142 233.7797 0001304  94.9880 265.1261 15.08849489 64113,6917.851,95.437,540.618,538.814,0.0
49754.0,STARLINK-3193,PAYLOAD,2023-01-21 21:30:08,15.08853047,0.0001242999999999,53.2145,229.3177,95.5816,264.5318,0.00028846,4.308e-05,0.0,0 STARLINK-3193,1 49754U 21115AG  23021.89592677  .00004308  00000-0  28846-3 0  9996,2 49754  53.2145 229.3177 0001243  95.5816 264.5318 15.08853047 64264,6917.840999999999,95.437,540.565,538.846,0.0
49754.0,STARLINK-3193,PAYLOAD,2023-01-22 13:23:59,15.08838789,0.0001330999999999,53.2157,226.3443,95.9158,264.1986,-4.2846e-05,-9.7e-06,0.0,0 STARLINK-3193,1 49754U 21115AG  23022.55833066 -.00000970  00000-0 -42846-4 0  9990,2 49754  53.2157 226.3443 0001331  95.9158 264.1986 15.08838789 64365,6917.884,95.438,540.67,538.828,0.0
49754.0,STARLINK-3193,PAYLOAD,2023-01-23 19:36:19,15.08841605,0.0001187,53.2143,220.6961,86.2109,273.9019,0.00024216,3.568e-05,0.0,0 STARLINK-3193,1 49754U 21115AG  23023.81689124  .00003568  00000-0  24216-3 0  9998,2 49754  53.2143 220.6961 0001187  86.2109 273.9019 15.08841605 64557,6917.875,95.437,540.562,538.919,0.0
49754.0,STARLINK-3193,PAYLOAD,2023-01-25 11:20:57,15.08838976,0.0001104,53.2146,213.2612,89.4593,270.6526,8.319299999999999e-05,1.036e-05,0.0,0 STARLINK-3193,1 49754U 21115AG  23025.47289169  .00001036  00000-0  83193-4 0  9995,2 49754  53.2146 213.2612 0001104  89.4593 270.6526 15.08838976 64804,6917.884,95.438,540.512,538.985,0.0
49754.0,STARLINK-3193,PAYLOAD,2023-01-25 19:17:53,15.08837864,0.0001112,53.2149,211.7738,90.1978,269.9141,4.3417e-05,4.03e-06,0.0,0 STARLINK-3193,1 49754U 21115AG  23025.80409236  .00000403  00000-0  43417-4 0  9993,2 49754  53.2149 211.7738 0001112  90.1978 269.9141 15.08837864 63745,6917.887,95.438,540.521,538.9830000000001,0.0
49754.0,STARLINK-3193,PAYLOAD,2023-01-26 12:47:08,15.0883861,0.0001104,53.2159,208.5025,90.3416,269.7703,2.6208e-05,1.29e-06,0.0,0 STARLINK-3193,1 49754U 21115AG  23026.53273457  .00000129  00000-0  26208-4 0  9992,2 49754  53.2159 208.5025 0001104  90.3416 269.7703 15.08838610 63853,6917.885,95.438,540.513,538.986,0.0
49754.0,STARLINK-3193,PAYLOAD,2023-01-26 15:57:54,15.08839707,0.0001094,53.2159,207.9078,90.2359,269.8759,2.9373e-05,1.8e-06,0.0,0 STARLINK-3193,1 49754U 21115AG  23026.66521350  .00000180  00000-0  29373-4 0  9997,2 49754  53.2159 207.9078 0001094  90.2359 269.8759 15.08839707 64982,6917.880999999999,95.438,540.503,538.989,0.0
49754.0,STARLINK-3193,PAYLOAD,2023-01-27 12:37:55,15.08832863,0.0001095999999999,53.216,204.0419,92.8381,267.2737,3.3568e-05,2.46e-06,0.0,0 STARLINK-3193,1 49754U 21115AG  23027.52633827  .00000246  00000-0  33568-4 0  9990,2 49754  53.2160 204.0419 0001096  92.8381 267.2737 15.08832863 65116,6917.901999999999,95.438,540.525,539.009,0.0
49754.0,STARLINK-3193,PAYLOAD,2023-01-27 18:59:28,15.08833593,0.0001436,53.2175,202.8537,100.362,259.7534,0.00011222,1.498e-05,0.0,0 STARLINK-3193,1 49754U 21115AG  23027.79129670  .00001498  00000-0  11222-3 0  9997,2 49754  53.2175 202.8537 0001436 100.3620 259.7534 15.08833593 64041,6917.9,95.438,540.758,538.7719999999999,0.0
49754.0,STARLINK-3193,PAYLOAD,2023-01-28 12:28:42,15.08839839,0.0001152,53.2169,199.5818,92.8528,267.2596,7.2838e-05,8.72e-06,0.0,0 STARLINK-3193,1 49754U 21115AG  23028.51993397  .00000872  00000-0  72838-4 0  9999,2 49754  53.2169 199.5818 0001152  92.8528 267.2596 15.08839839 65261,6917.881,95.438,540.543,538.949,0.0
49754.0,STARLINK-3193,PAYLOAD,2023-01-28 20:25:37,15.08846039,0.0001134,53.2169,198.0947,89.2611,270.8511,8.9641e-05,1.139e-05,0.0,0 STARLINK-3193,1 49754U 21115AG  23028.85112979  .00001139  00000-0  89641-4 0  9992,2 49754  53.2169 198.0947 0001134  89.2611 270.8511 15.08846039 64201,6917.862,95.437,540.511,538.942,0.0
49754.0,STARLINK-3193,PAYLOAD,2023-01-29 10:44:06,15.08831849,0.0001227,53.2169,195.4184,83.1882,276.925,5.4582e-05,5.81e-06,0.0,0 STARLINK-3193,1 49754U 21115AG  23029.44730065  .00000581  00000-0  54582-4 0  9996,2 49754  53.2169 195.4184 0001227  83.1882 276.9250 15.08831849 65404,6917.905,95.438,540.619,538.921,0.0
